ONEWEB-0706             
1 61611U 24188T   25151.80069956  .00000686  00000+0  19293-2 0  9990
2 61611  87.8824 112.3096 0002494  84.8160 275.3252 13.10373280 33439
ONEWEB-0707             
1 61612U 24188U   25151.81313761  .00000389  00000+0  10768-2 0  9996
2 61612  87.8802 112.2829 0002672  88.0510 272.0923 13.10369457 33375
ONEWEB-0708             
1 61613U 24188V   25151.60230890 -.00000459  00000+0 -13516-2 0  9999
2 61613  87.8859 112.3234 0002857  78.9191 281.2257 13.10371694 33320
